STARLINK-36338          
1 67704U 26025M   26050.91670139 -.01747350  83392-3 -57846-2 0  9997
2 67704  97.2741 161.5654 0001578  84.3174 100.0872 15.90469788  3044
STARLINK-36316          
1 67705U 26025N   26050.91670139 -.01726627  82050-3 -55441-2 0  9991
2 67705  97.2733 161.5717 0001678  77.3172 122.2747 15.91069762  3043
STARLINK-36707          
1 67706U 26025P   26050.91670139 -.01718176  81560-3 -54292-2 0  9990
2 67706  97.2728 161.5751 0001666  79.1156 128.3834 15.91384040  2834
STARLINK-36645          
1 67707U 26025Q   26050.91670139 -.01740095  83037-3 -56594-2 0  9994
2 67707  97.2734 161.5683 0001702  75.3530 117.7546 15.90818873  2603
STARLINK-36287          
1 67708U 26025R   26050.91670139 -.01707554  80843-3 -53216-2 0  9998
2 67708  97.2724 161.5774 0001643  80.1721 134.1561 15.91653398  3155
STARLINK-36698          
1 67709U 26025S   26050.91670139 -.01675889  78912-3 -49471-2 0  9996
2 67709  97.2717 161.5887 0001450  85.9079 154.4183 15.92704804  2994
STARLINK-36344          
1 67710U 26025T   26050.91670139 -.01702993  80773-3 -51975-2 0  9995
2 67710  97.2722 161.5818 0001619  78.6035 145.6755 15.92061227  3155
STARLINK-36687          
1 67711U 26025U   26050.91670139 -.01686491  79562-3 -50688-2 0  9994
2 67711  97.2720 161.5851 0001574  75.4917 156.2883 15.92357288  3150
STARLINK-36705          
1 67712U 26025V   26050.91670139 -.01662920  78066-3 -48177-2 0  9994
2 67712  97.2714 161.5915 0001575  75.4968 173.7301 15.93063964  3056
STARLINK-36708          
1 67713U 26025W   26050.91670139 -.01628513  75748-3 -45131-2 0  9996
2 67713  97.2719 161.6013 0001515  73.0980 197.3383 15.93909898  3051
STARLINK-36702          
1 67714U 26025X   26050.91670139 -.01645751  77048-3 -46207-2 0  9990
2 67714  97.2716 161.5983 0001524  77.5894 186.4355 15.93663610  2783
STARLINK-36718          
1 67715U 26025Y   26050.91670139 -.01623713  75830-3 -43521-2 0  9998
2 67715  97.2725 161.6081 0001244  89.4890 196.1110 15.94543841  2995
