CCSDS_OMM_VERS = 2.0
CREATION_DATE  = 
ORIGINATOR     = 

OBJECT_NAME    = STARLINK-36338
OBJECT_ID      = 2026-025M
CENTER_NAME    = EARTH
REF_FRAME      = TEME
TIME_SYSTEM    = UTC
MEAN_ELEMENT_THEORY = SGP/SGP4

EPOCH          = 2026-02-19T22:00:03.000096
MEAN_MOTION    = 15.90469788
ECCENTRICITY   = .0001578
INCLINATION    = 97.2741
RA_OF_ASC_NODE = 161.5654
ARG_OF_PERICENTER = 84.3174
MEAN_ANOMALY   = 100.0872

EPHEMERIS_TYPE = 0
CLASSIFICATION_TYPE = U
NORAD_CAT_ID   = 67704
ELEMENT_SET_NO = 999
REV_AT_EPOCH   = 304
BSTAR          = -.57845549E-2
MEAN_MOTION_DOT = -.174735E-1
MEAN_MOTION_DDOT = .83392383E-3

CCSDS_OMM_VERS = 2.0
CREATION_DATE  = 
ORIGINATOR     = 

OBJECT_NAME    = STARLINK-36316
OBJECT_ID      = 2026-025N
CENTER_NAME    = EARTH
REF_FRAME      = TEME
TIME_SYSTEM    = UTC
MEAN_ELEMENT_THEORY = SGP/SGP4

EPOCH          = 2026-02-19T22:00:03.000096
MEAN_MOTION    = 15.91069762
ECCENTRICITY   = .00016787
INCLINATION    = 97.2733
RA_OF_ASC_NODE = 161.5717
ARG_OF_PERICENTER = 77.3172
MEAN_ANOMALY   = 122.2747

EPHEMERIS_TYPE = 0
CLASSIFICATION_TYPE = U
NORAD_CAT_ID   = 67705
ELEMENT_SET_NO = 999
REV_AT_EPOCH   = 304
BSTAR          = -.55441247E-2
MEAN_MOTION_DOT = -.1726627E-1
MEAN_MOTION_DDOT = .8204979E-3

CCSDS_OMM_VERS = 2.0
CREATION_DATE  = 
ORIGINATOR     = 

OBJECT_NAME    = STARLINK-36707
OBJECT_ID      = 2026-025P
CENTER_NAME    = EARTH
REF_FRAME      = TEME
TIME_SYSTEM    = UTC
MEAN_ELEMENT_THEORY = SGP/SGP4

EPOCH          = 2026-02-19T22:00:03.000096
MEAN_MOTION    = 15.91384040
ECCENTRICITY   = .00016661
INCLINATION    = 97.2728
RA_OF_ASC_NODE = 161.5751
ARG_OF_PERICENTER = 79.1156
MEAN_ANOMALY   = 128.3834

EPHEMERIS_TYPE = 0
CLASSIFICATION_TYPE = U
NORAD_CAT_ID   = 67706
ELEMENT_SET_NO = 999
REV_AT_EPOCH   = 283
BSTAR          = -.54291822E-2
MEAN_MOTION_DOT = -.1718176E-1
MEAN_MOTION_DDOT = .81560059E-3

CCSDS_OMM_VERS = 2.0
CREATION_DATE  = 
ORIGINATOR     = 

OBJECT_NAME    = STARLINK-36645
OBJECT_ID      = 2026-025Q
CENTER_NAME    = EARTH
REF_FRAME      = TEME
TIME_SYSTEM    = UTC
MEAN_ELEMENT_THEORY = SGP/SGP4

EPOCH          = 2026-02-19T22:00:03.000096
MEAN_MOTION    = 15.90818873
ECCENTRICITY   = .00017027
INCLINATION    = 97.2734
RA_OF_ASC_NODE = 161.5683
ARG_OF_PERICENTER = 75.3530
MEAN_ANOMALY   = 117.7546

EPHEMERIS_TYPE = 0
CLASSIFICATION_TYPE = U
NORAD_CAT_ID   = 67707
ELEMENT_SET_NO = 999
REV_AT_EPOCH   = 260
BSTAR          = -.56594102E-2
MEAN_MOTION_DOT = -.1740095E-1
MEAN_MOTION_DDOT = .83036602E-3

CCSDS_OMM_VERS = 2.0
CREATION_DATE  = 
ORIGINATOR     = 

OBJECT_NAME    = STARLINK-36287
OBJECT_ID      = 2026-025R
CENTER_NAME    = EARTH
REF_FRAME      = TEME
TIME_SYSTEM    = UTC
MEAN_ELEMENT_THEORY = SGP/SGP4

EPOCH          = 2026-02-19T22:00:03.000096
MEAN_MOTION    = 15.91653398
ECCENTRICITY   = .00016437
INCLINATION    = 97.2724
RA_OF_ASC_NODE = 161.5774
ARG_OF_PERICENTER = 80.1721
MEAN_ANOMALY   = 134.1561

EPHEMERIS_TYPE = 0
CLASSIFICATION_TYPE = U
NORAD_CAT_ID   = 67708
ELEMENT_SET_NO = 999
REV_AT_EPOCH   = 315
BSTAR          = -.53215774E-2
MEAN_MOTION_DOT = -.1707554E-1
MEAN_MOTION_DDOT = .80842934E-3

CCSDS_OMM_VERS = 2.0
CREATION_DATE  = 
ORIGINATOR     = 

OBJECT_NAME    = STARLINK-36698
OBJECT_ID      = 2026-025S
CENTER_NAME    = EARTH
REF_FRAME      = TEME
TIME_SYSTEM    = UTC
MEAN_ELEMENT_THEORY = SGP/SGP4

EPOCH          = 2026-02-19T22:00:03.000096
MEAN_MOTION    = 15.92704804
ECCENTRICITY   = .00014501
INCLINATION    = 97.2717
RA_OF_ASC_NODE = 161.5887
ARG_OF_PERICENTER = 85.9079
MEAN_ANOMALY   = 154.4183

EPHEMERIS_TYPE = 0
CLASSIFICATION_TYPE = U
NORAD_CAT_ID   = 67709
ELEMENT_SET_NO = 999
REV_AT_EPOCH   = 299
BSTAR          = -.494705E-2
MEAN_MOTION_DOT = -.1675889E-1
MEAN_MOTION_DDOT = .78912031E-3

CCSDS_OMM_VERS = 2.0
CREATION_DATE  = 
ORIGINATOR     = 

OBJECT_NAME    = STARLINK-36344
OBJECT_ID      = 2026-025T
CENTER_NAME    = EARTH
REF_FRAME      = TEME
TIME_SYSTEM    = UTC
MEAN_ELEMENT_THEORY = SGP/SGP4

EPOCH          = 2026-02-19T22:00:03.000096
MEAN_MOTION    = 15.92061227
ECCENTRICITY   = .00016194
INCLINATION    = 97.2722
RA_OF_ASC_NODE = 161.5818
ARG_OF_PERICENTER = 78.6035
MEAN_ANOMALY   = 145.6755

EPHEMERIS_TYPE = 0
CLASSIFICATION_TYPE = U
NORAD_CAT_ID   = 67710
ELEMENT_SET_NO = 999
REV_AT_EPOCH   = 315
BSTAR          = -.51974678E-2
MEAN_MOTION_DOT = -.1702993E-1
MEAN_MOTION_DDOT = .80772817E-3

CCSDS_OMM_VERS = 2.0
CREATION_DATE  = 
ORIGINATOR     = 

OBJECT_NAME    = STARLINK-36687
OBJECT_ID      = 2026-025U
CENTER_NAME    = EARTH
REF_FRAME      = TEME
TIME_SYSTEM    = UTC
MEAN_ELEMENT_THEORY = SGP/SGP4

EPOCH          = 2026-02-19T22:00:03.000096
MEAN_MOTION    = 15.92357288
ECCENTRICITY   = .00015741
INCLINATION    = 97.2720
RA_OF_ASC_NODE = 161.5851
ARG_OF_PERICENTER = 75.4917
MEAN_ANOMALY   = 156.2883

EPHEMERIS_TYPE = 0
CLASSIFICATION_TYPE = U
NORAD_CAT_ID   = 67711
ELEMENT_SET_NO = 999
REV_AT_EPOCH   = 315
BSTAR          = -.50687586E-2
MEAN_MOTION_DOT = -.1686491E-1
MEAN_MOTION_DDOT = .79561601E-3

CCSDS_OMM_VERS = 2.0
CREATION_DATE  = 
ORIGINATOR     = 

OBJECT_NAME    = STARLINK-36705
OBJECT_ID      = 2026-025V
CENTER_NAME    = EARTH
REF_FRAME      = TEME
TIME_SYSTEM    = UTC
MEAN_ELEMENT_THEORY = SGP/SGP4

EPOCH          = 2026-02-19T22:00:03.000096
MEAN_MOTION    = 15.93063964
ECCENTRICITY   = .00015758
INCLINATION    = 97.2714
RA_OF_ASC_NODE = 161.5915
ARG_OF_PERICENTER = 75.4968
MEAN_ANOMALY   = 173.7301

EPHEMERIS_TYPE = 0
CLASSIFICATION_TYPE = U
NORAD_CAT_ID   = 67712
ELEMENT_SET_NO = 999
REV_AT_EPOCH   = 305
BSTAR          = -.48176848E-2
MEAN_MOTION_DOT = -.166292E-1
MEAN_MOTION_DDOT = .78066492E-3

CCSDS_OMM_VERS = 2.0
CREATION_DATE  = 
ORIGINATOR     = 

OBJECT_NAME    = STARLINK-36708
OBJECT_ID      = 2026-025W
CENTER_NAME    = EARTH
REF_FRAME      = TEME
TIME_SYSTEM    = UTC
MEAN_ELEMENT_THEORY = SGP/SGP4

EPOCH          = 2026-02-19T22:00:03.000096
MEAN_MOTION    = 15.93909898
ECCENTRICITY   = .00015152
INCLINATION    = 97.2719
RA_OF_ASC_NODE = 161.6013
ARG_OF_PERICENTER = 73.0980
MEAN_ANOMALY   = 197.3383

EPHEMERIS_TYPE = 0
CLASSIFICATION_TYPE = U
NORAD_CAT_ID   = 67713
ELEMENT_SET_NO = 999
REV_AT_EPOCH   = 305
BSTAR          = -.45131194E-2
MEAN_MOTION_DOT = -.1628513E-1
MEAN_MOTION_DDOT = .75747688E-3

CCSDS_OMM_VERS = 2.0
CREATION_DATE  = 
ORIGINATOR     = 

OBJECT_NAME    = STARLINK-36702
OBJECT_ID      = 2026-025X
CENTER_NAME    = EARTH
REF_FRAME      = TEME
TIME_SYSTEM    = UTC
MEAN_ELEMENT_THEORY = SGP/SGP4

EPOCH          = 2026-02-19T22:00:03.000096
MEAN_MOTION    = 15.93663610
ECCENTRICITY   = .00015249
INCLINATION    = 97.2716
RA_OF_ASC_NODE = 161.5983
ARG_OF_PERICENTER = 77.5894
MEAN_ANOMALY   = 186.4355

EPHEMERIS_TYPE = 0
CLASSIFICATION_TYPE = U
NORAD_CAT_ID   = 67714
ELEMENT_SET_NO = 999
REV_AT_EPOCH   = 278
BSTAR          = -.46206824E-2
MEAN_MOTION_DOT = -.1645751E-1
MEAN_MOTION_DDOT = .770479E-3

CCSDS_OMM_VERS = 2.0
CREATION_DATE  = 
ORIGINATOR     = 

OBJECT_NAME    = STARLINK-36718
OBJECT_ID      = 2026-025Y
CENTER_NAME    = EARTH
REF_FRAME      = TEME
TIME_SYSTEM    = UTC
MEAN_ELEMENT_THEORY = SGP/SGP4

EPOCH          = 2026-02-19T22:00:03.000096
MEAN_MOTION    = 15.94543841
ECCENTRICITY   = .00012448
INCLINATION    = 97.2725
RA_OF_ASC_NODE = 161.6081
ARG_OF_PERICENTER = 89.4890
MEAN_ANOMALY   = 196.1110

EPHEMERIS_TYPE = 0
CLASSIFICATION_TYPE = U
NORAD_CAT_ID   = 67715
ELEMENT_SET_NO = 999
REV_AT_EPOCH   = 299
BSTAR          = -.43521032E-2
MEAN_MOTION_DOT = -.1623713E-1
MEAN_MOTION_DDOT = .7582996E-3

